{
  "type": "FeatureCollection",
  "features": [
    {
      "type": "Feature",
      "properties": {
        "norad_id": 29807,
        "name": "FENGYUN 1C DEB",
        "group": "fengyun-1c-debris",
        "lat": 77.95838730593404,
        "lon": -147.4978924102211,
        "alt_km": 877.3681349591989,
        "timestamp": "2025-12-07T11:27:50.273685+00:00",
        "meta_object_name": "FENGYUN 1C DEB",
        "meta_object_id": "1999-025CZ",
        "meta_epoch": "2025-12-06T23:04:09.622272",
        "meta_mean_motion": 14.086491,
        "meta_eccentricity": 0.00798122,
        "meta_inclination": 98.7546,
        "meta_ra_of_asc_node": 345.7498,
        "meta_arg_of_pericenter": 348.3339,
        "meta_mean_anomaly": 11.598,
        "meta_ephemeris_type": 0,
        "meta_classification_type": "U",
        "meta_norad_cat_id": 29807,
        "meta_element_set_no": 999,
        "meta_rev_at_epoch": 97013,
        "meta_bstar": 0.00046432877,
        "meta_mean_motion_dot": 7.8e-06,
        "meta_mean_motion_ddot": 0,
        "tle_line1": "1 29807U 99025CZ  25340.96122248  .00000780  00000+0  46433-3 0  9996",
        "tle_line2": "2 29807  98.7546 345.7498 0079812 348.3339  11.5980 14.08649100970134"
      },
      "geometry": {
        "type": "Point",
        "coordinates": [
          -147.4978924102211,
          77.95838730593404
        ]
      }
    },
    {
      "type": "Feature",
      "properties": {
        "norad_id": 29808,
        "name": "FENGYUN 1C DEB",
        "group": "fengyun-1c-debris",
        "lat": -72.57288556856706,
        "lon": 48.41862470580138,
        "alt_km": 529.824949471712,
        "timestamp": "2025-12-07T11:27:50.273695+00:00",
        "meta_object_name": "FENGYUN 1C DEB",
        "meta_object_id": "1999-025DA",
        "meta_epoch": "2025-12-06T17:12:28.012032",
        "meta_mean_motion": 15.17581701,
        "meta_eccentricity": 0.00173603,
        "meta_inclination": 99.0162,
        "meta_ra_of_asc_node": 257.9011,
        "meta_arg_of_pericenter": 96.5885,
        "meta_mean_anomaly": 324.2448,
        "meta_ephemeris_type": 0,
        "meta_classification_type": "U",
        "meta_norad_cat_id": 29808,
        "meta_element_set_no": 999,
        "meta_rev_at_epoch": 98134,
        "meta_bstar": 0.019962122,
        "meta_mean_motion_dot": 0.00426114,
        "meta_mean_motion_ddot": 0,
        "tle_line1": "1 29808U 99025DA  25340.71699088  .00426114  00000+0  19962-1 0  9999",
        "tle_line2": "2 29808  99.0162 257.9011 0017360  96.5885 324.2448 15.17581701981347"
      },
      "geometry": {
        "type": "Point",
        "coordinates": [
          48.41862470580138,
          -72.57288556856706
        ]
      }
    },
    {
      "type": "Feature",
      "properties": {
        "norad_id": 29809,
        "name": "FENGYUN 1C DEB",
        "group": "fengyun-1c-debris",
        "lat": 54.98507089799552,
        "lon": 137.6425083064833,
        "alt_km": 770.0754807492331,
        "timestamp": "2025-12-07T11:27:50.273705+00:00",
        "meta_object_name": "FENGYUN 1C DEB",
        "meta_object_id": "1999-025DB",
        "meta_epoch": "2025-12-06T21:55:42.845376",
        "meta_mean_motion": 14.46563622,
        "meta_eccentricity": 0.01164921,
        "meta_inclination": 98.8594,
        "meta_ra_of_asc_node": 304.1896,
        "meta_arg_of_pericenter": 7.422,
        "meta_mean_anomaly": 60.0642,
        "meta_ephemeris_type": 0,
        "meta_classification_type": "U",
        "meta_norad_cat_id": 29809,
        "meta_element_set_no": 999,
        "meta_rev_at_epoch": 99383,
        "meta_bstar": 0.00068022615,
        "meta_mean_motion_dot": 2.615e-05,
        "meta_mean_motion_ddot": 0,
        "tle_line1": "1 29809U 99025DB  25340.91369034  .00002615  00000+0  68023-3 0  9997",
        "tle_line2": "2 29809  98.8594 304.1896 0116492   7.4220  60.0642 14.46563622993831"
      },
      "geometry": {
        "type": "Point",
        "coordinates": [
          137.6425083064833,
          54.98507089799552
        ]
      }
    },
    {
      "type": "Feature",
      "properties": {
        "norad_id": 29810,
        "name": "FENGYUN 1C DEB",
        "group": "fengyun-1c-debris",
        "lat": 61.552491961637884,
        "lon": -144.5708438782138,
        "alt_km": 782.3712024300457,
        "timestamp": "2025-12-07T11:27:50.273715+00:00",
        "meta_object_name": "FENGYUN 1C DEB",
        "meta_object_id": "1999-025DC",
        "meta_epoch": "2025-12-06T20:37:40.674720",
        "meta_mean_motion": 14.29118005,
        "meta_eccentricity": 0.00671789,
        "meta_inclination": 99.2074,
        "meta_ra_of_asc_node": 17.3556,
        "meta_arg_of_pericenter": 35.8536,
        "meta_mean_anomaly": 141.7867,
        "meta_ephemeris_type": 0,
        "meta_classification_type": "U",
        "meta_norad_cat_id": 29810,
        "meta_element_set_no": 999,
        "meta_rev_at_epoch": 98293,
        "meta_bstar": 0.00048591162,
        "meta_mean_motion_dot": 1.214e-05,
        "meta_mean_motion_ddot": 0,
        "tle_line1": "1 29810U 99025DC  25340.85949855  .00001214  00000+0  48591-3 0  9999",
        "tle_line2": "2 29810  99.2074  17.3556 0067178  35.8536 141.7867 14.29118005982935"
      },
      "geometry": {
        "type": "Point",
        "coordinates": [
          -144.5708438782138,
          61.552491961637884
        ]
      }
    },
    {
      "type": "Feature",
      "properties": {
        "norad_id": 29812,
        "name": "FENGYUN 1C DEB",
        "group": "fengyun-1c-debris",
        "lat": 30.616643773346144,
        "lon": -4.260389223237917,
        "alt_km": 987.0514259966712,
        "timestamp": "2025-12-07T11:27:50.273726+00:00",
        "meta_object_name": "FENGYUN 1C DEB",
        "meta_object_id": "1999-025DE",
        "meta_epoch": "2025-12-05T01:07:46.446240",
        "meta_mean_motion": 14.019487,
        "meta_eccentricity": 0.01442093,
        "meta_inclination": 98.3499,
        "meta_ra_of_asc_node": 168.5263,
        "meta_arg_of_pericenter": 349.4282,
        "meta_mean_anomaly": 138.6349,
        "meta_ephemeris_type": 0,
        "meta_classification_type": "U",
        "meta_norad_cat_id": 29812,
        "meta_element_set_no": 999,
        "meta_rev_at_epoch": 96064,
        "meta_bstar": 0.0017472529,
        "meta_mean_motion_dot": 2.877e-05,
        "meta_mean_motion_ddot": 0,
        "tle_line1": "1 29812U 99025DE  25339.04706535  .00002877  00000+0  17473-2 0  9996",
        "tle_line2": "2 29812  98.3499 168.5263 0144209 349.4282 138.6349 14.01948700960642"
      },
      "geometry": {
        "type": "Point",
        "coordinates": [
          -4.260389223237917,
          30.616643773346144
        ]
      }
    },
    {
      "type": "Feature",
      "properties": {
        "norad_id": 29813,
        "name": "FENGYUN 1C DEB",
        "group": "fengyun-1c-debris",
        "lat": -3.290566181983799,
        "lon": 2.006174586182271,
        "alt_km": 868.5510610652791,
        "timestamp": "2025-12-07T11:27:50.273736+00:00",
        "meta_object_name": "FENGYUN 1C DEB",
        "meta_object_id": "1999-025DF",
        "meta_epoch": "2025-12-05T08:26:47.543424",
        "meta_mean_motion": 14.09447975,
        "meta_eccentricity": 0.00115731,
        "meta_inclination": 98.728,
        "meta_ra_of_asc_node": 359.4401,
        "meta_arg_of_pericenter": 244.4199,
        "meta_mean_anomaly": 132.2998,
        "meta_ephemeris_type": 0,
        "meta_classification_type": "U",
        "meta_norad_cat_id": 29813,
        "meta_element_set_no": 999,
        "meta_rev_at_epoch": 97156,
        "meta_bstar": 0.00017865491,
        "meta_mean_motion_dot": 2.69e-06,
        "meta_mean_motion_ddot": 0,
        "tle_line1": "1 29813U 99025DF  25339.35193916  .00000269  00000+0  17865-3 0  9993",
        "tle_line2": "2 29813  98.7280 359.4401 0011573 244.4199 132.2998 14.09447975971567"
      },
      "geometry": {
        "type": "Point",
        "coordinates": [
          2.006174586182271,
          -3.290566181983799
        ]
      }
    },
    {
      "type": "Feature",
      "properties": {
        "norad_id": 29815,
        "name": "FENGYUN 1C DEB",
        "group": "fengyun-1c-debris",
        "lat": 25.905299461933495,
        "lon": -13.83381241957094,
        "alt_km": 754.0943124294163,
        "timestamp": "2025-12-07T11:27:50.273747+00:00",
        "meta_object_name": "FENGYUN 1C DEB",
        "meta_object_id": "1999-025DH",
        "meta_epoch": "2025-12-05T23:14:42.454752",
        "meta_mean_motion": 14.63648559,
        "meta_eccentricity": 0.01837546,
        "meta_inclination": 98.0551,
        "meta_ra_of_asc_node": 348.6345,
        "meta_arg_of_pericenter": 156.4645,
        "meta_mean_anomaly": 204.5103,
        "meta_ephemeris_type": 0,
        "meta_classification_type": "U",
        "meta_norad_cat_id": 29815,
        "meta_element_set_no": 999,
        "meta_rev_at_epoch": 99756,
        "meta_bstar": 0.00086580751,
        "meta_mean_motion_dot": 5.705e-05,
        "meta_mean_motion_ddot": 0,
        "tle_line1": "1 29815U 99025DH  25339.96854693  .00005705  00000+0  86581-3 0  9999",
        "tle_line2": "2 29815  98.0551 348.6345 0183754 156.4645 204.5103 14.63648559997569"
      },
      "geometry": {
        "type": "Point",
        "coordinates": [
          -13.83381241957094,
          25.905299461933495
        ]
      }
    }
  ]
}